IRIDIUM 150             
1 43257U 18030J   23225.92282044  .00000324  00000+0  10860-3 0  9994
2 43257  86.4006   4.3814 0002527  95.1300 265.0184 14.34216866281368
IRIDIUM 143             
1 43258U 18030K   23225.48517586  .00000242  00000+0  79246-4 0  9991
2 43258  86.4010   4.6151 0002280  87.7720 272.3736 14.34219139281247
IRIDIUM 161             
1 43478U 18047C   23226.35571280  .00000439  00000+0  12457-3 0  9999
2 43478  86.4553 162.2263 0002385  86.5399 273.6074 14.43284115275443
IRIDIUM 152             
1 43479U 18047D   23225.80672776  .00000269  00000+0  88816-4 0  9995
2 43479  86.4026 162.3158 0002337  79.0459 281.0999 14.34219295273662
IRIDIUM 147             
1 43480U 18047E   23226.37123062  .00000319  00000+0  10669-3 0  9995
2 43480  86.4028 162.0674 0002133  87.5901 272.5539 14.34218219273734
IRIDIUM 110             
1 43481U 18047F   23225.74965521  .00000095  00000+0  26717-4 0  9993
2 43481  86.4029 162.3913 0002395  92.2313 267.9158 14.34215887273637
IRIDIUM 162             
1 43482U 18047G   23226.34941617  .00000443  00000+0  12558-3 0  9995
2 43482  86.4551 162.1332 0002333  85.5586 274.5882 14.43282064275439
IRIDIUM 160             
1 43569U 18061A   23226.25364406  .00000319  00000+0  10693-3 0  9992
2 43569  86.3996 130.5911 0001988  78.1491 281.9928 14.34215999264600
